{"type": "FeatureCollection", "features": [ {"type": "Feature", "properties": {"norad_id": 35982, "name": "COSMOS 2251 DEB", "group": "cosmos-2251-debris", "lat": 6.223586428389932, "lon": -33.30562497824103, "alt_km": 643.4835125701511, "timestamp": "2025-12-24T05:51:20.006381+00:00", "meta": {"OBJECT_NAME": "COSMOS 2251 DEB", "OBJECT_ID": "1993-036AVY", "EPOCH": "2025-12-21T08:53:22.101216", "MEAN_MOTION": 14.62796302, "ECCENTRICITY": 0.00644452, "INCLINATION": 74.0583, "RA_OF_ASC_NODE": 330.4066, "ARG_OF_PERICENTER": 34.1969, "MEAN_ANOMALY": 326.3322, "EPHEMERIS_TYPE": 0, "CLASSIFICATION_TYPE": "U", "NORAD_CAT_ID": 35982, "ELEMENT_SET_NO": 999, "REV_AT_EPOCH": 86292, "BSTAR": 0.00048464355, "MEAN_MOTION_DOT": 2.517e-05, "MEAN_MOTION_DDOT": 0}, "tle": {"line1": "1 35982U 93036AVY 25355.37039469  .00002517  00000+0  48464-3 0  9992", "line2": "2 35982  74.0583 330.4066 0064445  34.1969 326.3322 14.62796302862921"}}, "geometry": {"type": "Point", "coordinates": [-33.30562497824103, 6.223586428389932]}}, {"type": "Feature", "properties": {"norad_id": 35987, "name": "COSMOS 2251 DEB", "group": "cosmos-2251-debris", "lat": -73.86047028449792, "lon": -152.2468059026243, "alt_km": 785.7931110121208, "timestamp": "2025-12-24T05:51:20.006391+00:00", "meta": {"OBJECT_NAME": "COSMOS 2251 DEB", "OBJECT_ID": "1993-036AWD", "EPOCH": "2025-12-21T03:25:05.273760", "MEAN_MOTION": 14.43173107, "ECCENTRICITY": 0.00462099, "INCLINATION": 74.0005, "RA_OF_ASC_NODE": 311.0003, "ARG_OF_PERICENTER": 74.0129, "MEAN_ANOMALY": 286.6111, "EPHEMERIS_TYPE": 0, "CLASSIFICATION_TYPE": "U", "NORAD_CAT_ID": 35987, "ELEMENT_SET_NO": 999, "REV_AT_EPOCH": 61186, "BSTAR": 0.00065128022, "MEAN_MOTION_DOT": 2.191e-05, "MEAN_MOTION_DDOT": 0}, "tle": {"line1": "1 35987U 93036AWD 25355.14242215  .00002191  00000+0  65128-3 0  9991", "line2": "2 35987  74.0005 311.0003 0046209  74.0129 286.6111 14.43173107611860"}}, "geometry": {"type": "Point", "coordinates": [-152.2468059026243, -73.86047028449792]}}, {"type": "Feature", "properties": {"norad_id": 35989, "name": "COSMOS 2251 DEB", "group": "cosmos-2251-debris", "lat": 58.8448089587823, "lon": -69.0642323350773, "alt_km": 759.4766242716723, "timestamp": "2025-12-24T05:51:20.006400+00:00", "meta": {"OBJECT_NAME": "COSMOS 2251 DEB", "OBJECT_ID": "1993-036AWF", "EPOCH": "2025-12-21T00:42:48.161376", "MEAN_MOTION": 14.37112482, "ECCENTRICITY": 0.00223748, "INCLINATION": 74.0376, "RA_OF_ASC_NODE": 268.5863, "ARG_OF_PERICENTER": 348.5916, "MEAN_ANOMALY": 11.4727, "EPHEMERIS_TYPE": 0, "CLASSIFICATION_TYPE": "U", "NORAD_CAT_ID": 35989, "ELEMENT_SET_NO": 999, "REV_AT_EPOCH": 87298, "BSTAR": 0.00015604931, "MEAN_MOTION_DOT": 4.39e-06, "MEAN_MOTION_DDOT": 0}, "tle": {"line1": "1 35989U 93036AWF 25355.02972409  .00000439  00000+0  15605-3 0  9993", "line2": "2 35989  74.0376 268.5863 0022374 348.5916  11.4727 14.37112482872984"}}, "geometry": {"type": "Point", "coordinates": [-69.0642323350773, 58.8448089587823]}}, {"type": "Feature", "properties": {"norad_id": 35993, "name": "COSMOS 2251 DEB", "group": "cosmos-2251-debris", "lat": 27.644477420149457, "lon": -40.735521607955604, "alt_km": 680.4688717258732, "timestamp": "2025-12-24T05:51:20.006410+00:00", "meta": {"OBJECT_NAME": "COSMOS 2251 DEB", "OBJECT_ID": "1993-036AWK", "EPOCH": "2025-12-21T03:59:29.501088", "MEAN_MOTION": 14.65356197, "ECCENTRICITY": 0.0028516, "INCLINATION": 74.0154, "RA_OF_ASC_NODE": 316.5577, "ARG_OF_PERICENTER": 143.4068, "MEAN_ANOMALY": 216.9056, "EPHEMERIS_TYPE": 0, "CLASSIFICATION_TYPE": "U", "NORAD_CAT_ID": 35993, "ELEMENT_SET_NO": 999, "REV_AT_EPOCH": 60566, "BSTAR": 0.00046927088, "MEAN_MOTION_DOT": 2.519e-05, "MEAN_MOTION_DDOT": 0}, "tle": {"line1": "1 35993U 93036AWK 25355.16631367  .00002519  00000+0  46927-3 0  9990", "line2": "2 35993  74.0154 316.5577 0028516 143.4068 216.9056 14.65356197605663"}}, "geometry": {"type": "Point", "coordinates": [-40.735521607955604, 27.644477420149457]}}, {"type": "Feature", "properties": {"norad_id": 35996, "name": "COSMOS 2251 DEB", "group": "cosmos-2251-debris", "lat": 45.66242434266818, "lon": -117.38345312520899, "alt_km": 484.52435474196864, "timestamp": "2025-12-24T05:51:20.006420+00:00", "meta": {"OBJECT_NAME": "COSMOS 2251 DEB", "OBJECT_ID": "1993-036AWN", "EPOCH": "2025-12-15T22:25:06.327264", "MEAN_MOTION": 15.09228347, "ECCENTRICITY": 0.00876626, "INCLINATION": 74.0159, "RA_OF_ASC_NODE": 96.8248, "ARG_OF_PERICENTER": 187.0066, "MEAN_ANOMALY": 172.9909, "EPHEMERIS_TYPE": 0, "CLASSIFICATION_TYPE": "U", "NORAD_CAT_ID": 35996, "ELEMENT_SET_NO": 999, "REV_AT_EPOCH": 72374, "BSTAR": 0.00054952121, "MEAN_MOTION_DOT": 9.536e-05, "MEAN_MOTION_DDOT": 0}, "tle": {"line1": "1 35996U 93036AWN 25349.93410101  .00009536  00000+0  54952-3 0  9995", "line2": "2 35996  74.0159  96.8248 0087662 187.0066 172.9909 15.09228347723745"}}, "geometry": {"type": "Point", "coordinates": [-117.38345312520899, 45.66242434266818]}}, {"type": "Feature", "properties": {"norad_id": 35997, "name": "COSMOS 2251 DEB", "group": "cosmos-2251-debris", "lat": -13.089526274919553, "lon": 161.8438313678217, "alt_km": 728.3425356255375, "timestamp": "2025-12-24T05:51:20.006430+00:00", "meta": {"OBJECT_NAME": "COSMOS 2251 DEB", "OBJECT_ID": "1993-036AWP", "EPOCH": "2025-12-23T05:06:13.780800", "MEAN_MOTION": 14.51360271, "ECCENTRICITY": 0.0015396, "INCLINATION": 74.0436, "RA_OF_ASC_NODE": 167.5974, "ARG_OF_PERICENTER": 242.7596, "MEAN_ANOMALY": 117.1997, "EPHEMERIS_TYPE": 0, "CLASSIFICATION_TYPE": "U", "NORAD_CAT_ID": 35997, "ELEMENT_SET_NO": 999, "REV_AT_EPOCH": 71036, "BSTAR": 0.00062809556, "MEAN_MOTION_DOT": 2.48e-05, "MEAN_MOTION_DDOT": 0}, "tle": {"line1": "1 35997U 93036AWP 25357.21265950  .00002480  00000+0  62810-3 0  9999", "line2": "2 35997  74.0436 167.5974 0015396 242.7596 117.1997 14.51360271710369"}}, "geometry": {"type": "Point", "coordinates": [161.8438313678217, -13.089526274919553]}}, {"type": "Feature", "properties": {"norad_id": 36005, "name": "COSMOS 2251 DEB", "group": "cosmos-2251-debris", "lat": -32.16757820497453, "lon": -97.13998651831237, "alt_km": 696.4248649940973, "timestamp": "2025-12-24T05:51:20.006440+00:00", "meta": {"OBJECT_NAME": "COSMOS 2251 DEB", "OBJECT_ID": "1993-036AWX", "EPOCH": "2025-12-23T22:14:08.155392", "MEAN_MOTION": 14.4737424, "ECCENTRICITY": 0.00615582, "INCLINATION": 74.027, "RA_OF_ASC_NODE": 73.0757, "ARG_OF_PERICENTER": 208.0822, "MEAN_ANOMALY": 151.7013, "EPHEMERIS_TYPE": 0, "CLASSIFICATION_TYPE": "U", "NORAD_CAT_ID": 36005, "ELEMENT_SET_NO": 999, "REV_AT_EPOCH": 87746, "BSTAR": 0.00018390154, "MEAN_MOTION_DOT": 6.62e-06, "MEAN_MOTION_DDOT": 0}, "tle": {"line1": "1 36005U 93036AWX 25357.92648328  .00000662  00000+0  18390-3 0  9996", "line2": "2 36005  74.0270  73.0757 0061558 208.0822 151.7013 14.47374240877468"}}, "geometry": {"type": "Point", "coordinates": [-97.13998651831237, -32.16757820497453]}}, {"type": "Feature", "properties": {"norad_id": 36045, "name": "COSMOS 2251 DEB", "group": "cosmos-2251-debris", "lat": 50.938511567990254, "lon": -164.62353412861717, "alt_km": 648.9872014360944, "timestamp": "2025-12-24T05:51:20.006450+00:00", "meta": {"OBJECT_NAME": "COSMOS 2251 DEB", "OBJECT_ID": "1993-036AXG", "EPOCH": "2025-12-17T21:23:36.435552", "MEAN_MOTION": 14.69971183, "ECCENTRICITY": 0.0048002, "INCLINATION": 73.7643, "RA_OF_ASC_NODE": 48.9349, "ARG_OF_PERICENTER": 60.9199, "MEAN_ANOMALY": 299.6765, "EPHEMERIS_TYPE": 0, "CLASSIFICATION_TYPE": "U", "NORAD_CAT_ID": 36045, "ELEMENT_SET_NO": 999, "REV_AT_EPOCH": 8464, "BSTAR": 0.0014164853, "MEAN_MOTION_DOT": 8.618e-05, "MEAN_MOTION_DDOT": 0}, "tle": {"line1": "1 36045U 93036AXG 25351.89139393  .00008618  00000+0  14165-2 0  9991", "line2": "2 36045  73.7643  48.9349 0048002  60.9199 299.6765 14.69971183 84640"}}, "geometry": {"type": "Point", "coordinates": [-164.62353412861717, 50.938511567990254]}}, {"type": "Feature", "properties": {"norad_id": 36046, "name": "COSMOS 2251 DEB", "group": "cosmos-2251-debris", "lat": -8.00486184541649, "lon": -107.97550579122418, "alt_km": 651.8466924638496, "timestamp": "2025-12-24T05:51:20.006460+00:00", "meta": {"OBJECT_NAME": "COSMOS 2251 DEB", "OBJECT_ID": "1993-036AXH", "EPOCH": "2025-12-21T00:56:56.522112", "MEAN_MOTION": 14.65315014, "ECCENTRICITY": 0.00558701, "INCLINATION": 74.0169, "RA_OF_ASC_NODE": 260.5061, "ARG_OF_PERICENTER": 44.1197, "MEAN_ANOMALY": 331.1837, "EPHEMERIS_TYPE": 0, "CLASSIFICATION_TYPE": "U", "NORAD_CAT_ID": 36046, "ELEMENT_SET_NO": 999, "REV_AT_EPOCH": 64125, "BSTAR": 0.00034570915, "MEAN_MOTION_DOT": 1.877e-05, "MEAN_MOTION_DDOT": 0}, "tle": {"line1": "1 36046U 93036AXH 25355.03954308  .00001877  00000+0  34571-3 0  9997", "line2": "2 36046  74.0169 260.5061 0055870  44.1197 331.1837 14.65315014641253"}}, "geometry": {"type": "Point", "coordinates": [-107.97550579122418, -8.00486184541649]}}, {"type": "Feature", "properties": {"norad_id": 36047, "name": "COSMOS 2251 DEB", "group": "cosmos-2251-debris", "lat": 52.889366572903405, "lon": 108.68088209270898, "alt_km": 577.0546154692602, "timestamp": "2025-12-24T05:51:20.006471+00:00", "meta": {"OBJECT_NAME": "COSMOS 2251 DEB", "OBJECT_ID": "1993-036AXJ", "EPOCH": "2025-12-21T21:08:53.075040", "MEAN_MOTION": 14.96393257, "ECCENTRICITY": 0.000841, "INCLINATION": 74.036, "RA_OF_ASC_NODE": 315.6865, "ARG_OF_PERICENTER": 344.906, "MEAN_ANOMALY": 15.1873, "EPHEMERIS_TYPE": 0, "CLASSIFICATION_TYPE": "U", "NORAD_CAT_ID": 36047, "ELEMENT_SET_NO": 999, "REV_AT_EPOCH": 66076, "BSTAR": 0.0028311075, "MEAN_MOTION_DOT": 0.00032218, "MEAN_MOTION_DDOT": 0}, "tle": {"line1": "1 36047U 93036AXJ 25355.88116985  .00032218  00000+0  28311-2 0  9999", "line2": "2 36047  74.0360 315.6865 0008410 344.9060  15.1873 14.96393257660764"}}, "geometry": {"type": "Point", "coordinates": [108.68088209270898, 52.889366572903405]}}]}